{"type": "FeatureCollection", "features": [ {"type": "Feature", "properties": {"norad_id": 30208, "name": "FENGYUN 1C DEB", "group": "fengyun-1c-debris", "lat": 59.698076274019186, "lon": 174.70998389400287, "alt_km": 831.4667642572331, "timestamp": "2025-12-04T13:52:00.717349+00:00", "meta": {"OBJECT_NAME": "FENGYUN 1C DEB", "OBJECT_ID": "1999-025VR", "EPOCH": "2025-12-04T00:07:17.567616", "MEAN_MOTION": 14.23495686, "ECCENTRICITY": 0.00330923, "INCLINATION": 98.5616, "RA_OF_ASC_NODE": 339.2143, "ARG_OF_PERICENTER": 296.4208, "MEAN_ANOMALY": 129.4362, "EPHEMERIS_TYPE": 0, "CLASSIFICATION_TYPE": "U", "NORAD_CAT_ID": 30208, "ELEMENT_SET_NO": 999, "REV_AT_EPOCH": 97713, "BSTAR": 0.00087368514, "MEAN_MOTION_DOT": 1.955e-05, "MEAN_MOTION_DDOT": 0}, "tle": {"line1": "1 30208U 99025VR  25338.00506444  .00001955  00000+0  87369-3 0  9997", "line2": "2 30208  98.5616 339.2143 0033092 296.4208 129.4362 14.23495686977135"}}, "geometry": {"type": "Point", "coordinates": [174.70998389400287, 59.698076274019186]}}, {"type": "Feature", "properties": {"norad_id": 30209, "name": "FENGYUN 1C DEB", "group": "fengyun-1c-debris", "lat": 52.51114830001213, "lon": -35.907642423431746, "alt_km": 868.8779483471399, "timestamp": "2025-12-04T13:52:00.717359+00:00", "meta": {"OBJECT_NAME": "FENGYUN 1C DEB", "OBJECT_ID": "1999-025VS", "EPOCH": "2025-12-03T05:37:01.279776", "MEAN_MOTION": 14.12878138, "ECCENTRICITY": 0.0038556, "INCLINATION": 98.7136, "RA_OF_ASC_NODE": 334.3186, "ARG_OF_PERICENTER": 266.5143, "MEAN_ANOMALY": 155.7792, "EPHEMERIS_TYPE": 0, "CLASSIFICATION_TYPE": "U", "NORAD_CAT_ID": 30209, "ELEMENT_SET_NO": 999, "REV_AT_EPOCH": 97072, "BSTAR": 0.00065004, "MEAN_MOTION_DOT": 1.175e-05, "MEAN_MOTION_DDOT": 0}, "tle": {"line1": "1 30209U 99025VS  25337.23404259  .00001175  00000+0  65004-3 0  9999", "line2": "2 30209  98.7136 334.3186 0038556 266.5143 155.7792 14.12878138970726"}}, "geometry": {"type": "Point", "coordinates": [-35.907642423431746, 52.51114830001213]}}, {"type": "Feature", "properties": {"norad_id": 30210, "name": "FENGYUN 1C DEB", "group": "fengyun-1c-debris", "lat": -16.219074087095187, "lon": -154.5234285758725, "alt_km": 837.4080460749319, "timestamp": "2025-12-04T13:52:00.717369+00:00", "meta": {"OBJECT_NAME": "FENGYUN 1C DEB", "OBJECT_ID": "1999-025VT", "EPOCH": "2025-12-04T02:58:26.205888", "MEAN_MOTION": 14.08240402, "ECCENTRICITY": 0.00568554, "INCLINATION": 99.1914, "RA_OF_ASC_NODE": 27.714, "ARG_OF_PERICENTER": 159.9837, "MEAN_ANOMALY": 256.2257, "EPHEMERIS_TYPE": 0, "CLASSIFICATION_TYPE": "U", "NORAD_CAT_ID": 30210, "ELEMENT_SET_NO": 999, "REV_AT_EPOCH": 96636, "BSTAR": 0.00099169413, "MEAN_MOTION_DOT": 1.673e-05, "MEAN_MOTION_DDOT": 0}, "tle": {"line1": "1 30210U 99025VT  25338.12391442  .00001673  00000+0  99169-3 0  9991", "line2": "2 30210  99.1914  27.7140 0056855 159.9837 256.2257 14.08240402966367"}}, "geometry": {"type": "Point", "coordinates": [-154.5234285758725, -16.219074087095187]}}, {"type": "Feature", "properties": {"norad_id": 30212, "name": "FENGYUN 1C DEB", "group": "fengyun-1c-debris", "lat": 53.30580773168752, "lon": -169.2012847509821, "alt_km": 962.6412421555842, "timestamp": "2025-12-04T13:52:00.717380+00:00", "meta": {"OBJECT_NAME": "FENGYUN 1C DEB", "OBJECT_ID": "1999-025VV", "EPOCH": "2025-12-04T05:00:37.176768", "MEAN_MOTION": 13.97043685, "ECCENTRICITY": 0.00967898, "INCLINATION": 99.4582, "RA_OF_ASC_NODE": 203.345, "ARG_OF_PERICENTER": 260.6165, "MEAN_ANOMALY": 98.4043, "EPHEMERIS_TYPE": 0, "CLASSIFICATION_TYPE": "U", "NORAD_CAT_ID": 30212, "ELEMENT_SET_NO": 999, "REV_AT_EPOCH": 96106, "BSTAR": 0.00084306799, "MEAN_MOTION_DOT": 1.176e-05, "MEAN_MOTION_DDOT": 0}, "tle": {"line1": "1 30212U 99025VV  25338.20876362  .00001176  00000+0  84307-3 0  9997", "line2": "2 30212  99.4582 203.3450 0096789 260.6165  98.4043 13.97043685961065"}}, "geometry": {"type": "Point", "coordinates": [-169.2012847509821, 53.30580773168752]}}, {"type": "Feature", "properties": {"norad_id": 30213, "name": "FENGYUN 1C DEB", "group": "fengyun-1c-debris", "lat": 58.66458997632679, "lon": 39.58042407122237, "alt_km": 894.3568197929153, "timestamp": "2025-12-04T13:52:00.717391+00:00", "meta": {"OBJECT_NAME": "FENGYUN 1C DEB", "OBJECT_ID": "1999-025VW", "EPOCH": "2025-12-04T03:38:45.628800", "MEAN_MOTION": 14.11498791, "ECCENTRICITY": 0.00709575, "INCLINATION": 99.1239, "RA_OF_ASC_NODE": 54.4518, "ARG_OF_PERICENTER": 267.6802, "MEAN_ANOMALY": 149.0834, "EPHEMERIS_TYPE": 0, "CLASSIFICATION_TYPE": "U", "NORAD_CAT_ID": 30213, "ELEMENT_SET_NO": 999, "REV_AT_EPOCH": 96394, "BSTAR": 0.0031939367, "MEAN_MOTION_DOT": 5.888e-05, "MEAN_MOTION_DDOT": 0}, "tle": {"line1": "1 30213U 99025VW  25338.15191700  .00005888  00000+0  31939-2 0  9994", "line2": "2 30213  99.1239  54.4518 0070957 267.6802 149.0834 14.11498791963945"}}, "geometry": {"type": "Point", "coordinates": [39.58042407122237, 58.66458997632679]}}, {"type": "Feature", "properties": {"norad_id": 30214, "name": "FENGYUN 1C DEB", "group": "fengyun-1c-debris", "lat": 27.41495141339787, "lon": 47.12969478726509, "alt_km": 776.312935376398, "timestamp": "2025-12-04T13:52:00.717401+00:00", "meta": {"OBJECT_NAME": "FENGYUN 1C DEB", "OBJECT_ID": "1999-025VX", "EPOCH": "2025-12-04T03:48:15.774624", "MEAN_MOTION": 14.30805289, "ECCENTRICITY": 0.00215501, "INCLINATION": 98.7254, "RA_OF_ASC_NODE": 51.2778, "ARG_OF_PERICENTER": 70.869, "MEAN_ANOMALY": 318.7633, "EPHEMERIS_TYPE": 0, "CLASSIFICATION_TYPE": "U", "NORAD_CAT_ID": 30214, "ELEMENT_SET_NO": 999, "REV_AT_EPOCH": 97444, "BSTAR": 0.0036230297, "MEAN_MOTION_DOT": 9.487e-05, "MEAN_MOTION_DDOT": 0}, "tle": {"line1": "1 30214U 99025VX  25338.15851591  .00009487  00000+0  36230-2 0  9994", "line2": "2 30214  98.7254  51.2778 0021550  70.8690 318.7633 14.30805289974449"}}, "geometry": {"type": "Point", "coordinates": [47.12969478726509, 27.41495141339787]}}, {"type": "Feature", "properties": {"norad_id": 30217, "name": "FENGYUN 1C DEB", "group": "fengyun-1c-debris", "lat": -4.649339927669597, "lon": -36.63973335986515, "alt_km": 874.0759983118942, "timestamp": "2025-12-04T13:52:00.717411+00:00", "meta": {"OBJECT_NAME": "FENGYUN 1C DEB", "OBJECT_ID": "1999-025WA", "EPOCH": "2025-12-03T10:55:21.921312", "MEAN_MOTION": 14.24815955, "ECCENTRICITY": 0.01404732, "INCLINATION": 98.4306, "RA_OF_ASC_NODE": 321.5907, "ARG_OF_PERICENTER": 126.8245, "MEAN_ANOMALY": 234.5916, "EPHEMERIS_TYPE": 0, "CLASSIFICATION_TYPE": "U", "NORAD_CAT_ID": 30217, "ELEMENT_SET_NO": 999, "REV_AT_EPOCH": 97941, "BSTAR": 0.00030892938, "MEAN_MOTION_DOT": 7.57e-06, "MEAN_MOTION_DDOT": 0}, "tle": {"line1": "1 30217U 99025WA  25337.45511483  .00000757  00000+0  30893-3 0  9993", "line2": "2 30217  98.4306 321.5907 0140473 126.8245 234.5916 14.24815955979413"}}, "geometry": {"type": "Point", "coordinates": [-36.63973335986515, -4.649339927669597]}}, {"type": "Feature", "properties": {"norad_id": 30218, "name": "FENGYUN 1C DEB", "group": "fengyun-1c-debris", "lat": 70.48083874548858, "lon": -85.78765474063478, "alt_km": 838.9156879134716, "timestamp": "2025-12-04T13:52:00.717421+00:00", "meta": {"OBJECT_NAME": "FENGYUN 1C DEB", "OBJECT_ID": "1999-025WB", "EPOCH": "2025-12-03T05:41:23.773344", "MEAN_MOTION": 14.28604281, "ECCENTRICITY": 0.0069969, "INCLINATION": 98.9855, "RA_OF_ASC_NODE": 66.3228, "ARG_OF_PERICENTER": 281.3972, "MEAN_ANOMALY": 134.7205, "EPHEMERIS_TYPE": 0, "CLASSIFICATION_TYPE": "U", "NORAD_CAT_ID": 30218, "ELEMENT_SET_NO": 999, "REV_AT_EPOCH": 96973, "BSTAR": 0.0033338, "MEAN_MOTION_DOT": 8.554e-05, "MEAN_MOTION_DDOT": 0}, "tle": {"line1": "1 30218U 99025WB  25337.23708071  .00008554  00000+0  33338-2 0  9990", "line2": "2 30218  98.9855  66.3228 0069969 281.3972 134.7205 14.28604281969730"}}, "geometry": {"type": "Point", "coordinates": [-85.78765474063478, 70.48083874548858]}}, {"type": "Feature", "properties": {"norad_id": 30221, "name": "FENGYUN 1C DEB", "group": "fengyun-1c-debris", "lat": -57.07655894271176, "lon": -128.30882931059597, "alt_km": 849.3480651869268, "timestamp": "2025-12-04T13:52:00.717431+00:00", "meta": {"OBJECT_NAME": "FENGYUN 1C DEB", "OBJECT_ID": "1999-025WE", "EPOCH": "2025-12-04T04:28:19.707744", "MEAN_MOTION": 14.45789463, "ECCENTRICITY": 0.01457834, "INCLINATION": 98.957, "RA_OF_ASC_NODE": 65.3757, "ARG_OF_PERICENTER": 66.7806, "MEAN_ANOMALY": 294.8661, "EPHEMERIS_TYPE": 0, "CLASSIFICATION_TYPE": "U", "NORAD_CAT_ID": 30221, "ELEMENT_SET_NO": 999, "REV_AT_EPOCH": 99277, "BSTAR": 0.0004164989, "MEAN_MOTION_DOT": 1.63e-05, "MEAN_MOTION_DDOT": 0}, "tle": {"line1": "1 30221U 99025WE  25338.18633921  .00001630  00000+0  41650-3 0  9995", "line2": "2 30221  98.9570  65.3757 0145783  66.7806 294.8661 14.45789463992773"}}, "geometry": {"type": "Point", "coordinates": [-128.30882931059597, -57.07655894271176]}}, {"type": "Feature", "properties": {"norad_id": 30222, "name": "FENGYUN 1C DEB", "group": "fengyun-1c-debris", "lat": -1.817875750431628, "lon": 12.466224326871727, "alt_km": 869.4019978279157, "timestamp": "2025-12-04T13:52:00.717441+00:00", "meta": {"OBJECT_NAME": "FENGYUN 1C DEB", "OBJECT_ID": "1999-025WF", "EPOCH": "2025-12-04T02:09:46.228896", "MEAN_MOTION": 14.0407404, "ECCENTRICITY": 0.00382866, "INCLINATION": 98.8429, "RA_OF_ASC_NODE": 11.7086, "ARG_OF_PERICENTER": 60.9085, "MEAN_ANOMALY": 354.1182, "EPHEMERIS_TYPE": 0, "CLASSIFICATION_TYPE": "U", "NORAD_CAT_ID": 30222, "ELEMENT_SET_NO": 999, "REV_AT_EPOCH": 96717, "BSTAR": 0.00011874637, "MEAN_MOTION_DOT": 1.46e-06, "MEAN_MOTION_DDOT": 0}, "tle": {"line1": "1 30222U 99025WF  25338.09011839  .00000146  00000+0  11875-3 0  9991", "line2": "2 30222  98.8429  11.7086 0038286  60.9085 354.1182 14.04074040967177"}}, "geometry": {"type": "Point", "coordinates": [12.466224326871727, -1.817875750431628]}}]}